zip,city,state
1010,Vienna,Vienna
1020,Vienna,Vienna
1030,Vienna,Vienna
1040,Vienna,Vienna
1050,Vienna,Vienna
1060,Vienna,Vienna
1070,Vienna,Vienna
1080,Vienna,Vienna
1090,Vienna,Vienna
1100,Vienna,Vienna
1110,Vienna,Vienna
1120,Vienna,Vienna
1130,Vienna,Vienna
1140,Vienna,Vienna
1140,Vienna,Vienna
1150,Vienna,Vienna
1160,Vienna,Vienna
1170,Vienna,Vienna
1180,Vienna,Vienna
1190,Vienna,Vienna
1200,Vienna,Vienna
1210,Vienna,Vienna
1210,Vienna,Vienna
1220,Vienna,Vienna
1230,Vienna,Vienna
1300,Vienna-Airport,Vienna
2000,Stockerau,Lower Austria
2002,Großmugl,Lower Austria
2003,Leitzersdorf,Lower Austria
2004,Niederhollabrunn,Lower Austria
2011,Sierndorf,Lower Austria
2013,Göllersdorf,Lower Austria
2014,Breitenwaida,Lower Austria
2020,Hollabrunn,Lower Austria
2022,Immendorf,Lower Austria
2023,Nappersdorf,Lower Austria
2024,Mailberg,Lower Austria
2031,Eggendorf im Thale,Lower Austria
2032, "Enzersdorf im Thale",Lower Austria
2033,Kammersdorf,Lower Austria
2034,Großharras,Lower Austria
2041,Wullersdorf,Lower Austria
2042,Guntersdorf,Lower Austria
2051,Zellerndorf,Lower Austria
2052,Pernersdorf-Pfaffendorf,Lower Austria
2053,Jetzelsdorf,Lower Austria
2054,Haugsdorf,Lower Austria
2061,Hadres,Lower Austria
2062,Seefeld-Großkadolz,Lower Austria
2063,Zwingendorf,Lower Austria
2064,Wulzeshofen,Lower Austria
2070,Retz,Lower Austria
2073,Schrattenthal,Lower Austria
2074,Unterretzbach,Lower Austria
2081,Niederfladnitz,Lower Austria
2082,Hardegg,Lower Austria
2083,Pleißing,Lower Austria
2084,Weitersfeld,Lower Austria
2091,Langau,Lower Austria
2092,Riegersburg,Lower Austria
2093,Geras,Lower Austria
2094,Zissersdorf,Lower Austria
2095,Drosendorf,Lower Austria
2100,Korneuburg,Lower Austria
2102,Bisamberg,Lower Austria
2103,Langenzersdorf,Lower Austria
2104,Spillern,Lower Austria
2105,Oberrohrbach,Lower Austria
2111,Rückersdorf-Harmannsdorf,Lower Austria
2112,Würnitz,Lower Austria
2113,Karnabrunn,Lower Austria
2114,Großrußbach,Lower Austria
2115,Ernstbrunn,Lower Austria
2116,Niederleis,Lower Austria
2120,Wolkersdorf im Weinviertel,Lower Austria
2122,Ulrichskirchen,Lower Austria
2123,Schleinbach,Lower Austria
2124,Niederkreuzstetten,Lower Austria
2125,Neubau,Lower Austria
2126,Ladendorf,Lower Austria
2130,Mistelbach,Lower Austria
2132,Frättingsdorf,Lower Austria
2133,Loosdorf,Lower Austria
2134,Staatz-Kautendorf,Lower Austria
2135, "Neudorf im Weinviertel",Lower Austria
2136, "Laa an der Thaya",Lower Austria
2141,Ameis,Lower Austria
2143,Großkrut,Lower Austria
2144,Altlichtenwarth,Lower Austria
2145,Hausbrunn,Lower Austria
2151,Asparn an der Zaya,Lower Austria
2152,Gnadendorf,Lower Austria
2153,Stronsdorf,Lower Austria
2154,Unterstinkenbrunn,Lower Austria
2161,Poysbrunn,Lower Austria
2162,Falkenstein,Lower Austria
2163,Ottenthal,Lower Austria
2164,Wildendürnbach,Lower Austria
2165,Drasenhofen,Lower Austria
2170,Poysdorf,Lower Austria
2171,Herrnbaumgarten,Lower Austria
2172,Schrattenberg,Lower Austria
2181,Dobermannsdorf,Lower Austria
2182,Palterndorf,Lower Austria
2183,Neusiedl an der Zaya,Lower Austria
2184,Hauskirchen,Lower Austria
2185, "Prinzendorf an der Zaya",Lower Austria
2191,Gaweinstal,Lower Austria
2192,Kettlasbrunn,Lower Austria
2193,Wilfersdorf,Lower Austria
2201,Gerasdorf,Lower Austria
2202,Enzersfeld,Lower Austria
2203,Großebersdorf,Lower Austria
2211,Pillichsdorf,Lower Austria
2212,Großengersdorf,Lower Austria
2213,Bockfließ,Lower Austria
2214,Auersthal,Lower Austria
2215,Raggendorf,Lower Austria
2221,Groß Schweinbarth,Lower Austria
2222,Bad Pirawarth,Lower Austria
2223,Hohenruppersdorf,Lower Austria
2224,Obersulz,Lower Austria
2225,Zistersdorf,Lower Austria
2230,Gänserndorf,Lower Austria
2231,Strasshof an der Nordbahn,Lower Austria
2232,Deutsch Wagram,Lower Austria
2241,Schönkirchen,Lower Austria
2242,Prottes,Lower Austria
2243,Matzen,Lower Austria
2244,Spannberg,Lower Austria
2245,Velm-Götzendorf,Lower Austria
2251,Ebenthal,Lower Austria
2252,Ollersdorf,Lower Austria
2253,Weikendorf,Lower Austria
2261,Angern an der March,Lower Austria
2262,Stillfried,Lower Austria
2263,Dürnkrut,Lower Austria
2264,Jedenspeigen,Lower Austria
2265,Drösing,Lower Austria
2272,Niederabsdorf,Lower Austria
2273,Hohenau an der March,Lower Austria
2274,Rabensburg,Lower Austria
2275,Bernhardsthal,Lower Austria
2276,Reintal,Lower Austria
2280,Glinzendorf,Lower Austria
2281,Raasdorf,Lower Austria
2282,Markgrafneusiedl,Lower Austria
2283,Obersiebenbrunn,Lower Austria
2284,Untersiebenbrunn,Lower Austria
2285,Leopoldsdorf im Marchfelde,Lower Austria
2286,Haringsee,Lower Austria
2291,Lassee,Lower Austria
2292,Engelhartstetten,Lower Austria
2293,Marchegg Stadt,Lower Austria
2294,Marchegg Bahnhof,Lower Austria
2295,Oberweiden,Lower Austria
2301,Groß-Enzersdorf,Lower Austria
2301,Groß-Enzersdorf,Lower Austria
2304,Orth an der Donau",Lower Austria
2305,Eckartsau,Lower Austria
2320,Schwechat,Lower Austria
2322,Zwölfaxing,Lower Austria
2325,Himberg,Lower Austria
2326,Maria Lanzendorf,Lower Austria
2331,Vösendorf,Lower Austria
2332,Hennersdorf,Lower Austria
2333,Leopoldsdorf,Lower Austria
2334,Vösendorf,Lower Austria
2340,Mödling,Lower Austria
2344,Maria Enzersdorf,Lower Austria
2345,Brunn am Gebirge,Lower Austria
2351,Wiener Neudorf,Lower Austria
2352,Gumpoldskirchen,Lower Austria
2353,Guntramsdorf,Lower Austria
2361,Laxenburg,Lower Austria
2362,Biedermannsdorf,Lower Austria
2371,Hinterbrühl,Lower Austria
2372,Gießhübl,Lower Austria
2380,Perchtoldsdorf,Lower Austria
2381,Laab im Walde,Lower Austria
2384,Breitenfurt bei Wien,Lower Austria
2391,Kaltenleutgeben,Lower Austria
2392,Sulz im Wienerwald,Lower Austria
2393,Sittendorf,Lower Austria
2401,Fischamend,Lower Austria
2402,Maria Ellend,Lower Austria
2403,Regelsbrunn,Lower Austria
2404,Petronell,Lower Austria
2405,Bad Deutsch Altenburg,Lower Austria
2410,Hainburg an der Donau,Lower Austria
2412,Wolfsthal,Lower Austria
2413,Berg,Lower Austria
2421,Kittsee,Burgenland
2422,Pama,Burgenland
2423,Deutsch Jahrndorf,Burgenland
2424,Zurndorf,Burgenland
2425,Nickelsdorf,Burgenland
2431,Kleinneusiedl,Lower Austria
2432,Schwadorf,Lower Austria
2433,Margarethen am Moos,Lower Austria
2434,Götzendorf an der Leitha,Lower Austria
2435,Ebergassing,Lower Austria
2440,Gramatneusiedl,Lower Austria
2441,Mitterndorf an der Fischa,Lower Austria
2442,Unterwaltersdorf,Lower Austria
2443,Deutsch-Brodersdorf,Lower Austria
2444,Seibersdorf,Lower Austria
2451,Hof am Leithaberge,Lower Austria
2452,Mannersdorf am Leithagebirge,Lower Austria
2453,Sommerein,Lower Austria
2454,Trautmannsdorf an der Leitha",Lower Austria
2460,Bruck an der Leitha",Lower Austria
2462,Wilfleinsdorf,Lower Austria
2463,Stixneusiedl,Lower Austria
2464,Göttlesbrunn,Lower Austria
2465,Höflein,Lower Austria
2471,Rohrau,Lower Austria
2472,Prellenkirchen,Lower Austria
2473,Potzneusiedl,Burgenland
2474,Gattendorf,Burgenland
2475,Neudorf,Burgenland
2481,Achau,Lower Austria
2482,Münchendorf,Lower Austria
2483,Ebreichsdorf,Lower Austria
2485,Wampersdorf,Lower Austria
2486,Pottendorf,Lower Austria
2490,Ebenfurth,Lower Austria
2491,Neufeld an der Leitha,Burgenland
2492,Eggendorf,Lower Austria
2493,Lichtenwörth-Nadelburg,Lower Austria
2500,Baden,Lower Austria
2504,Sooß,Lower Austria
2511,Pfaffstätten,Lower Austria
2512,Tribuswinkel,Lower Austria
2514,Traiskirchen,Lower Austria
2521,Trumau,Lower Austria
2522,Oberwaltersdorf,Lower Austria
2523,Tattendorf,Lower Austria
2524,Teesdorf,Lower Austria
2525,Günselsdorf,Lower Austria
2531,Gaaden,Lower Austria
2532,Heiligenkreuz im Wienerwald,Lower Austria
2533,Klausen-Leopoldsdorf,Lower Austria
2534,Alland,Lower Austria
2540,Bad Vöslau,Lower Austria
2542,Kottingbrunn,Lower Austria
2544,Leobersdorf,Lower Austria
2551,Enzesfeld-Lindabrunn,Lower Austria
2552,Hirtenberg,Lower Austria
2560,Berndorf,Lower Austria
2563,Pottenstein,Lower Austria
2564,Weissenbach an der Triesting,Lower Austria
2565,Neuhaus,Lower Austria
2571,Altenmarkt-Thenneberg,Lower Austria
2572,Kaumberg,Lower Austria
2601,Sollenau,Lower Austria
2602,Blumau-Neurißhof,Lower Austria
2603,Felixdorf,Lower Austria
2604,Theresienfeld,Lower Austria
2620,Neunkirchen,Lower Austria
2624,Breitenau,Lower Austria
2625,Schwarzau am Steinfelde,Lower Austria
2630,Ternitz,Lower Austria
2631,Sieding-Stixenstein,Lower Austria
2632,Wimpassing im Schwarzatale,Lower Austria
2640,Gloggnitz,Lower Austria
2641,Schottwien,Lower Austria
2650,Payerbach,Lower Austria
2651,Reichenau an der Rax,Lower Austria
2654,Prein an der Rax,Lower Austria
2661,Naßwald,Lower Austria
2662,Schwarzau im Gebirge,Lower Austria
2663,Rohr im Gebirge,Lower Austria
2671,Küb,Lower Austria
2673,Breitenstein,Lower Austria
2680,Semmering,Lower Austria
2700,Wiener Neustadt,Lower Austria
2721,Bad Fischau,Lower Austria
2722,Winzendorf,Lower Austria
2723,Muthmannsdorf,Lower Austria
2724,Hohe Wand-Stollhof,Lower Austria
2731,St. Egyden am Steinfeld,Lower Austria
2732,Willendorf,Lower Austria
2733,Grünbach am Schneeberg,Lower Austria
2734,Puchberg am Schneeberg,Lower Austria
2751,Steinabrückl,Lower Austria
2752,Wöllersdorf,Lower Austria
2753,Markt Piesting,Lower Austria
2754,Waldegg,Lower Austria
2755,Oed,Lower Austria
2761,Miesenbach,Lower Austria
2763,Pernitz,Lower Austria
2770,Gutenstein,Lower Austria
2801,Katzelsdorf,Lower Austria
2802,Hochwolkersdorf,Lower Austria
2803,Schwarzenbach,Lower Austria
2811,Wiesmath,Lower Austria
2812,Hollenthon,Lower Austria
2813,Lichtenegg,Lower Austria
2821,Lanzenkirchen,Lower Austria
2822,Bad Erlach,Lower Austria
2823,Pitten,Lower Austria
2824,Seebenstein,Lower Austria
2831,Warth,Lower Austria
2832,Thernberg,Lower Austria
2833,Bromberg,Lower Austria
2840,Grimmenstein,Lower Austria
2842,Edlitz,Lower Austria
2851,Krumbach,Lower Austria
2852,Hochneukirchen,Lower Austria
2853,Bad Schönau,Lower Austria
2860,Kirchschlag in der Buckligen Welt,Lower Austria
2870,Aspang,Lower Austria
2871,Zöbern,Lower Austria
2872,Mönichkirchen,Lower Austria
2873,Feistritz am Wechsel,Lower Austria
2880,Kirchberg am Wechsel,Lower Austria
2881,Trattenbach,Lower Austria
3001,Mauerbach,Lower Austria
3002,Purkersdorf,Lower Austria
3003,Gablitz,Lower Austria
3004,Ried am Riederberg,Lower Austria
3011,Untertullnerbach,Lower Austria
3012,Wolfsgraben,Lower Austria
3013,Tullnerbach-Lawies,Lower Austria
3021,Pressbaum,Lower Austria
3031,Rekawinkel,Lower Austria
3032,Eichgraben,Lower Austria
3033,Altlengbach,Lower Austria
3034,Maria Anzbach,Lower Austria
3040,Neulengbach,Lower Austria
3041,Asperhofen,Lower Austria
3042,Würmla,Lower Austria
3051,St. Christophen,Lower Austria
3052,Innermanzing,Lower Austria
3053,Laaben,Lower Austria
3061,Ollersbach,Lower Austria
3062,Kirchstetten,Lower Austria
3071,Böheimkirchen,Lower Austria
3072,Kasten bei Böheimkirchen,Lower Austria
3073,Stössing,Lower Austria
3074,Michelbach,Lower Austria
3100,St. Pölten,Lower Austria
3104,St. Pölten-Harland,Lower Austria
3105,St. Pölten-Radlberg,Lower Austria
3107,St. Pölten-Traisenpark,Lower Austria
3110,Neidling,Lower Austria
3121,Karlstetten,Lower Austria
3122,Gansbach,Lower Austria
3123,Obritzberg,Lower Austria
3124,Oberwölbling,Lower Austria
3125,Statzendorf,Lower Austria
3130,Herzogenburg,Lower Austria
3131,Getzersdorf,Lower Austria
3133,Traismauer,Lower Austria
3134,Nußdorf,Lower Austria
3140,Pottenbrunn,Lower Austria
3141,Kapelln,Lower Austria
3142,Perschling,Lower Austria
3143,Pyhra,Lower Austria
3144,Wald,Lower Austria
3150,Wilhelmsburg,Lower Austria
3151,St. Georgen am Steinfelde,Lower Austria
3153,Eschenau,Lower Austria
3160,Traisen,Lower Austria
3161,St. Veit an der Gölsen,Lower Austria
3162,Rainfeld,Lower Austria
3163,Rohrbach,Lower Austria
3170,Hainfeld,Lower Austria
3171,Kleinzell-Salzerbad,Lower Austria
3172,Ramsau,Lower Austria
3180,Lilienfeld,Lower Austria
3183,Freiland,Lower Austria
3184,Türnitz,Lower Austria
3192,Hohenberg,Lower Austria
3193,St. Aegyd am Neuwalde,Lower Austria
3195,Kernhof,Lower Austria
3200,Ober-Grafendorf,Lower Austria
3202,Hofstetten,Lower Austria
3203,Rabenstein an der Pielach,Lower Austria
3204,Kirchberg an der Pielach,Lower Austria
3205,Weinburg,Lower Austria
3211,Loich,Lower Austria
3212, "Schwarzenbach an der Pielach",Lower Austria
3213,Frankenfels,Lower Austria
3214,Puchenstuben,Lower Austria
3221,Gösing an der Mariazellerbahn,Lower Austria
3222,Annaberg,Lower Austria
3223,Wienerbruck,Lower Austria
3224,Mitterbach,Lower Austria
3231,St. Margarethen an der Sierning,Lower Austria
3232,Bischofstetten,Lower Austria
3233,Kilb,Lower Austria
3240,Mank,Lower Austria
3241,Kirnberg an der Mank,Lower Austria
3242,Texing,Lower Austria
3243,St. Leonhard am Forst,Lower Austria
3244,Ruprechtshofen,Lower Austria
3250,Wieselburg,Lower Austria
3251,Purgstall,Lower Austria
3252,Petzenkirchen,Lower Austria
3253,Erlauf,Lower Austria
3254,Bergland,Lower Austria
3261,Steinakirchen am Forst,Lower Austria
3262,Wang,Lower Austria
3263,Randegg,Lower Austria
3264,Gresten,Lower Austria
3270,Scheibbs,Lower Austria
3281, "Oberndorf an der Melk",Lower Austria
3282, "St. Georgen an der Leys",Lower Austria
3283, "St. Anton an der Jeßnitz",Lower Austria
3291,Kienberg,Lower Austria
3292,Gaming,Lower Austria
3293, "Lunz am See",Lower Austria
3294,Langau,Lower Austria
3295,Lackenhof,Lower Austria
3300,Amstetten,Lower Austria
3304,St. Georgen am Ybbsfelde,Lower Austria
3311,Zeillern,Lower Austria
3312,Oed,Lower Austria
3313,Wallsee,Lower Austria
3314,Strengberg,Lower Austria
3321,Ardagger,Lower Austria
3322,Viehdorf,Lower Austria
3323,Neustadtl an der Donau,Lower Austria
3324,Euratsfeld,Lower Austria
3325,Ferschnitz,Lower Austria
3331,Kematen,Lower Austria
3332,Rosenau am Sonntagberg,Lower Austria
3333,Böhlerwerk,Lower Austria
3334,Gaflenz,Upper Austria
3335,Weyer,Upper Austri
3340,Waidhofen an der Ybbs,Lower Austria
3341,Ybbsitz,Lower Austria
3342,Opponitz,Lower Austria
3343,Hollenstein an der Ybbs,Lower Austria
3344,St. Georgen am Reith,Lower Austria
3345,Göstling an der Ybbs,Lower Austria
3350,Haag,Lower Austria
3351,Weistrach,Lower Austria
3352,St. Peter in der Au,Lower Austria
3353,Seitenstetten,Lower Austria
3354,Wolfsbach,Lower Austria
3355,Ertl,Lower Austria
3361,Aschbach Markt,Lower Austria
3362,Mauer-Öhling,Lower Austria
3363,Ulmerfeld-Hausmening,Lower Austria
3364,Neuhofen an der Ybbs,Lower Austria
3365,Allhartsberg,Lower Austria
3370,Ybbs an der Donau,Lower Austria
3371,Neumarkt an der Ybbs,Lower Austria
3372,Blindenmarkt,Lower Austria
3373,Kemmelbach,Lower Austria
3374,Säusenstein,Lower Austria
3375,Krummnußbaum,Lower Austria
3376,St. Martin-Karlsbach,Lower Austria
3380,Pöchlarn,Lower Austria
3381,Golling,Lower Austria
3382,Loosdorf,Lower Austria
3383,Hürm,Lower Austria
3384,Groß Sierning,Lower Austria
3385,Prinzersdorf,Lower Austria
3386,Hafnerbach,Lower Austria
3390,Melk,Lower Austria
3392,Schönbühel an der Donau,Lower Austria
3393,Matzleinsdorf,Lower Austria
3394,Schönbühel-Aggsbach,Lower Austria
3400,Klosterneuburg,Lower Austria
3413,Hintersdorf,Lower Austria
3420,Kritzendorf,Lower Austria
3421,Höflein an der Donau,Lower Austria
3422,Greifenstein,Lower Austria
3423,St. Andrä-Wördern,Lower Austria
3424,Zeiselmauer,Lower Austria
3425,Langenlebarn,Lower Austria
3426,Muckendorf-Wipfing,Lower Austria
3430,Tulln on the Danube,Lower Austria
3433,Königstetten,Lower Austria
3434,Tulbing,Lower Austria
3435,Zwentendorf on the Danube,Lower Austria
3441,Judenau,Lower Austria
3442,Langenrohr,Lower Austria
3443,Sieghartskirchen,Lower Austria
3451,Michelhausen,Lower Austria
3452,Atzenbrugg,Lower Austria
3454,Sitzenberg-Reidling,Lower Austria
3462,Absdorf,Lower Austria
3463,Stetteldorf am Wagram,Lower Austria
3464,Hausleiten,Lower Austria
3465,Königsbrunn am Wagram,Lower Austria
3470,Kirchberg am Wagram,Lower Austria
3471,Großriedenthal,Lower Austria
3472,Hohenwarth,Lower Austria
3473,Mühlbach am Manhartsberg,Lower Austria
3474,Altenwörth,Lower Austria
3481,Fels am Wagram,Lower Austria
3482,Gösing am Wagram,Lower Austria
3483,Feuersbrunn,Lower Austria
3484,Grafenwörth,Lower Austria
3485,Haitzendorf,Lower Austria
3491,Straß im Straßertale",Lower Austria
3492,Etsdorf am Kamp,Lower Austria
3493,Hadersdorf am Kamp,Lower Austria
3494,Gedersdorf",Lower Austria
3495,Rohrendorf bei Krems,Lower Austria
3500,Krems on the Danube,Lower Austria
3506,Krems-Hollenburg,Lower Austria
3508,Paudorf,Lower Austria
3511,Furth bei Göttweig,Lower Austria
3512,Mautern,Lower Austria
3521,Obermeisling,Lower Austria
3522,Lichtenau,Lower Austria
3524,Grainbrunn,Lower Austria
3525,Sallingberg,Lower Austria
3531,Niedernondorf,Lower Austria
3532,Rastenfeld,Lower Austria
3533,Friedersbach,Lower Austria
3541,Senftenberg,Lower Austria
3542,Gföhl,Lower Austria
3543,Krumau am Kamp,Lower Austria
3544,Idolsberg,Lower Austria
3550,Langenlois,Lower Austria
3552,Lengenfeld,Lower Austria
3553,Schiltern,Lower Austria
3561,Zöbing,Lower Austria
3562,Schönberg,Lower Austria
3564,Plank am Kamp,Lower Austria
3571,Gars am Kamp",Lower Austria
3572,St. Leonhard am Hornerwald,Lower Austria
3573,Rosenburg,Lower Austria
3580,Horn,Lower Austria
3591,Altenburg,Lower Austria
3592,Röhrenbach,Lower Austria
3593,Neupölla,Lower Austria
3594,Franzen,Lower Austria
3595,Brunn an der Wild,Lower Austria
3601,Dürnstein,Lower Austria
3602,Rossatz,Lower Austria
3610,Weißenkirchen in der Wachau,Lower Austria
3611,Großheinrichschlag,Lower Austria
3613,Albrechtsberg an der Großen Krems,Lower Austria
3620,Spitz,Lower Austria
3621,Mitterarnsdorf,Lower Austria
3622,Mühldorf,Lower Austria
3623,Kottes,Lower Austria
3631,Ottenschlag,Lower Austria
3632,Bad Traunstein,Lower Austria
3633,Schönbach,Lower Austria
3641,Aggsbach Markt,Lower Austria
3642,Aggsbach Dorf,Lower Austria
3643,Maria Laach am Jauerling,Lower Austria
3644,Emmersdorf on the Danube,Lower Austria
3650,Pöggstall,Lower Austria
3652,Leiben,Lower Austria
3653,Weiten,Lower Austria
3654,Raxendorf,Lower Austria
3660,Klein-Pöchlarn,Lower Austria
3661,Artstetten,Lower Austria
3662,Münichreith,Lower Austria
3663,Laimbach am Ostrong,Lower Austria
3664,Martinsberg,Lower Austria
3665,Gutenbrunn,Lower Austria
3671,Marbach an der Donau,Lower Austria
3672,Maria Taferl,Lower Austria
3680,Persenbeug,Lower Austria
3681,Hofamt Priel,Lower Austria
3683,Yspertal,Lower Austria
3684,St. Oswald,Lower Austria
3691,Nöchling,Lower Austria
3701,Großweikersdorf,Lower Austria
3702,Niederrußbach,Lower Austria
3704,Glaubendorf,Lower Austria
3710,Ziersdorf,Lower Austria
3711,Großmeiseldorf,Lower Austria
3712,Maissau,Lower Austria
3713,Harmannsdorf,Lower Austria
3714,Sitzendorf an der Schmida,Lower Austria
3720,Ravelsbach,Lower Austria
3721,Limberg,Lower Austria
3722,Straning,Lower Austria
3730,Eggenburg,Lower Austria
3741,Pulkau,Lower Austria
3742,Theras,Lower Austria
3743,Röschitz,Lower Austria
3744,Stockern,Lower Austria
3751,Sigmundsherberg,Lower Austria
3752,Walkenstein,Lower Austria
3753,Hötzelsdorf,Lower Austria
3754,Irnfritz,Lower Austria
3761,Messern,Lower Austria
3762,Ludweis,Lower Austria
3763,Japons,Lower Austria
3800,Göpfritz an der Wild,Lower Austria
3804,Allentsteig,Lower Austria
3811,Kirchberg an der Wild,Lower Austria
3812,Groß Siegharts,Lower Austria
3813,Dietmanns,Lower Austria
3814,Aigen,Lower Austria
3820,Raabs an der Thaya,Lower Austria
3822,Karlstein an der Thaya,Lower Austria
3823,Weikertschlag an der Thaya,Lower Austria
3824,Großau,Lower Austria
3830,Waidhofen an der Thaya,Lower Austria
3834,Pfaffenschlag bei Waidhofen an der Thaya,Lower Austria
3834,Pfaffenschlag near Waidhofen an der Thaya,Lower Austria
3841,Windigsteig,Lower Austria
3842,Thaya,Lower Austria
3843,Dobersberg,Lower Austria
3844,Waldkirchen an der Thaya,Lower Austria
3851,Kautzen,Lower Austria
3852,Gastern,Lower Austria
3860,Heidenreichstein,Lower Austria
3861,Eggern,Lower Austria
3862,Eisgarn,Lower Austria
3863,Reingers,Lower Austria
3871,Nagelberg,Lower Austria
3872,Langegg,Lower Austria
3873,Brand,Lower Austria
3874,Litschau,Lower Austria
3900,Schwarzenau,Lower Austria
3902,Vitis,Lower Austria
3903,Echsenbach,Lower Austria
3910,Zwettl,Lower Austria
3911,Rappottenstein,Lower Austria
3912,Grafenschlag,Lower Austria
3913,Großgöttfritz,Lower Austria
3914,Waldhausen,Lower Austria
3920,Groß Gerungs,Lower Austria
3921,Langschlag,Lower Austria
3922,Großschönau,Lower Austria
3923,Jagenbach,Lower Austria
3924,Rosenau castle,Lower Austria
3925,Arbesbach,Lower Austria
3931,Schweiggers,Lower Austria
3932, "Kirchberg am Walde",Lower Austria
3942,Hirschbach,Lower Austria
3943,Schrems,Lower Austria
3944,Pürbach,Lower Austria
3945,Hoheneich,Lower Austria
3950,Gmünd,Lower Austria
3961,Waldenstein,Lower Austria
3962,Heinrichs near Weitra,Lower Austria
3970,Weitra,Lower Austria
3971,St. Martin,Lower Austria
3972,Bad Großpertholz,Lower Austria
3973,Karlstift,Lower Austria
4020,Linz,Upper Austria
4030,Linz,Upper Austria
4040,Linz,Upper Austria
4048,Puchenau,Upper Austria
4050,Traun,Upper Austria
4052,Ansfelden,Upper Austria
4053,Haid,Upper Austria
4055,Pucking,Upper Austria
4060,Leonding,Upper Austria
4061,Pasching,Upper Austria
4062,Thening,Upper Austria
4063,Hörsching,Upper Austria
4064,Oftering,Upper Austria
4070,Eferding,Upper Austria
4072,Alkoven,Upper Austria
4073,Wilhering,Upper Austria
4074,Stroheim,Upper Austria
4075,Breitenaich,Upper Austria
4076,St. Marienkirchen an der Polsenz,Upper Austria
4081,Hartkirchen,Upper Austria
4082,Aschach an der Donau,Upper Austria
4083,Haibach ob der Donau,Upper Austria
4084,St. Agatha,Upper Austria
4085,Wesenufer,Upper Austria
4090,Engelhartszell,Upper Austria
4091,Vichtenstein,Upper Austria
4092,Esternberg,Upper Austria
4100,Ottensheim,Upper Austria
4101,Feldkirchen on the Danube,Upper Austria
4102,Goldwörth,Upper Austria
4111,Walding,Upper Austria
4112,Rottenegg,Upper Austria
4113,St. Martin im Mühlkreis,Upper Austria
4113,St. Martin im Mühlkreis,Upper Austria
4114,Neuhaus an der Donau,Upper Austria
4115,Kleinzell im Mühlkreis,Upper Austria
4116,St. Ulrich im Mühlkreis,Upper Austria
4120,Neufelden,Upper Austria
4121,Altenfelden,Upper Austria
4122,Arnreit,Upper Austria
4131,Kirchberg ob der Donau,Upper Austria
4132,Lembach im Mühlkreis,Upper Austria
4133,Niederkappel,Upper Austria
4134,Putzleinsdorf,Upper Austria
4141,Pfarrkirchen im Mühlkreis,Upper Austria
4142,Hofkirchen im Mühlkreis,Upper Austria
4143,Neustift im Mühlkreis,Upper Austria
4144,Oberkappel,Upper Austria
4150,Rohrbach in Upper Austria",Upper Austria
4151,Oepping,Upper Austria
4152,Sarleinsbach,Upper Austria
4153, "Peilstein in the Mühlviertel,Upper Austria
4154,Kollerschlag,Upper Austria
4155,Nebelberg,Upper Austria
4160,Aigen-Schlägl,Upper Austria
4161,Ulrichsberg,Upper Austria
4162,Julbach,Upper Austria
4163,Klaffer am Hochficht,Upper Austria
4164,Schwarzenberg am Böhmerwald,Upper Austria
4170,Haslach an der Mühl,Upper Austria
4171,St. Peter am Wimberg",Upper Austria
4172,St. Johann am Wimberg",Upper Austria
4173,St. Veit im Mühlkreis",Upper Austria
4174,Niederwaldkirchen,Upper Austria
4175,Herzogsdorf,Upper Austria
4180,Zwettl an der Rodl,Upper Austria
4181,Oberneukirchen,Upper Austria
4182,Waxenberg,Upper Austria
4183,Traberg,Upper Austria
4184,Helfenberg,Upper Austria
4190,Bad Leonfelden,Upper Austria
4191,Vorderweißenbach,Upper Austria
4192,Schenkenfelden,Upper Austria
4193,Reichenthal,Upper Austria
4201,Gramastetten,Upper Austria
4202,Hellmonsödt,Upper Austria
4203,Altenberg near Linz,Upper Austria
4204,Reichenau im Mühlkreis,Upper Austria
4209,Engerwitzdorf,Upper Austria
4210,Gallneukirchen,Upper Austria
4211,Alberndorf in der Riedmark,Upper Austria
4212,Neumarkt im Mühlkreis,Upper Austria
4213,Unterweitersdorf,Upper Austria
4221,Steyregg,Upper Austria
4222,St. Georgen an der Gusen,Upper Austria
4223,Katsdorf,Upper Austria
4224,Wartberg ob der Aist,Upper Austria
4224,Wartberg ob der Aist,Upper Austria
4225,Luftenberg,Upper Austria
4230,Pregarten,Upper Austria
4232,Hagenberg im Mühlkreis,Upper Austria
4240,Freistadt,Upper Austria
4240,Freistadt,Upper Austria
4242,Hirschbach im Mühlkreis,Upper Austria
4251,Sandl,Upper Austria
4252,Liebenau,Upper Austria
4261,Rainbach im Mühlkreis,Upper Austria
4262,Leopoldschlag,Upper Austria
4263, "Windhaag bei Freistadt",Upper Austria
4264,Grünbach,Upper Austria
4271, "St. Oswald bei Freistadt",Upper Austria
4272,Weitersfelden,Upper Austria
4273,Unterweißenbach,Upper Austria
4274,Schönau im Mühlkreis,Upper Austria
4280,Königswiesen,Upper Austria
4281,Mönchdorf,Upper Austria
4282,Pierbach,Upper Austria
4283,Bad Zell,Upper Austria
4284,Tragwein,Upper Austria
4284,Tragwein,Upper Austria
4291,Lasberg,Upper Austria
4292,Kefermarkt,Upper Austria
4293,Gutau,Upper Austria
4294,St. Leonhard bei Freistadt,Upper Austria
4300,St. Valentin,Lower Austria
4303,St. Pantaleon,Lower Austria
4310,Mauthausen,Upper Austria
4311,Schwertberg,Upper Austria
4311,Schwertberg,Upper Austria
4312,Ried in der Riedmark,Upper Austria
4320,Perg,Upper Austria
4322,Windhaag bei Perg,Upper Austria
4323,Münzbach,Upper Austria
4324,Rechberg,Upper Austria
4331,Naarn,Upper Austria
4332,Au an der Donau,Upper Austria
4341,Arbing,Upper Austria
4342,Baumgartenberg,Upper Austria
4343,Mitterkirchen,Upper Austria
4351,Saxen,Upper Austria
4352,Klam,Upper Austria
4360,Grein,Upper Austria
4362,Bad Kreuzen,Upper Austria
4363,Pabneukirchen,Upper Austria
4364, "St. Thomas",Upper Austria
4371,Dimbach,Upper Austria
4372, "St. Georgen am Walde",Upper Austria
4381, "St. Nikola an der Donau",Upper Austria
4382,Sarmingstein,Upper Austria
4391, "Waldhausen im Strudengau",Upper Austria
4392,Dorfstetten,Lower Austria
4400,Steyr,Upper Austria
4407,Steyr-Gleink,Upper Austria
4421,Aschach an der Steyr,Upper Austria
4421,Aschach an der Steyr,Upper Austria
4431,Haidershofen,Lower Austria
4432,Ernsthofen,Lower Austria
4441,Behamberg,Lower Austria
4442,Kleinraming,Upper Austria
4443,Maria Neustift,Upper Austria
4451,Garsten,Upper Austria
4452,Ternberg,Upper Austria
4453,Trattenbach,Upper Austria
4460,Losenstein,Upper Austria
4461,Laussa,Upper Austria
4462,Reichraming,Upper Austria
4463,Großraming,Upper Austria
4464,Kleinreifling,Upper Austria
4470,Enns,Upper Austria
4481,Asten,Upper Austria
4482,Ennsdorf,Lower Austria
4483,Hargelsberg,Upper Austria
4484,Kronstorf,Upper Austria
4490,St. Florian,Upper Austria
4491,Niederneukirchen,Upper Austria
4492,Hofkirchen im Traunkreis",Upper Austria
4493,Wolfern,Upper Austria
4501,Neuhofen an der Krems,Upper Austria
4502,St. Marien,Upper Austria
4511,Allhaming,Upper Austria
4521,Schiedlberg,Upper Austria
4522,Sierning,Upper Austria
4523,Neuzeug,Upper Austria
4531,Kematen an der Krems,Upper Austria
4532,Rohr im Kremstal,Upper Austria
4533,Piberbach,Upper Austria
4540,Bad Hall,Upper Austria
4541,Adlwang,Upper Austria
4542,Nußbach,Upper Austria
4550,Kremsmünster,Upper Austria
4551,Ried im Traunkreis,Upper Austria
4552,Wartberg an der Krems,Upper Austria
4553,Schlierbach,Upper Austria
4554,Oberschlierbach,Upper Austria
4560,Kirchdorf an der Krems,Upper Austria
4562,Steinbach am Ziehberg,Upper Austria
4563,Micheldorf,Upper Austria
4564,Klaus an der Pyhrnbahn,Upper Austria
4565,Inzersdorf im Kremstal,Upper Austria
4571,Steyrling,Upper Austria
4572,St. Pankraz,Upper Austria
4573,Hinterstoder,Upper Austria
4574,Vorderstoder,Upper Austria
4575,Roßleithen,Upper Austria
4580,Windischgarsten,Upper Austria
4581,Rosenau am Hengstpaß,Upper Austria
4582,Spital am Pyhrn,Upper Austria
4591,Molln,Upper Austria
4592,Leonstein,Upper Austria
4593,Obergrünburg,Upper Austria
4594,Grünburg,Upper Austria
4594,Grünburg,Upper Austria
4595,Waldneukirchen,Upper Austria
4596,Steinbach an der Steyr,Upper Austria
4600,Wels,Upper Austria
4611,Buchkirchen,Upper Austria
4611,Buchkirchen,Upper Austria
4612,Scharten,Upper Austria
4612,Scharten,Upper Austria
4613,Mistelbach bei Wels,Upper Austria
4614,Marchtrenk,Upper Austria
4615,Holzhausen,Upper Austria
4616,Weißkirchen,Upper Austria
4616,Weißkirchen,Upper Austria
4621,Sipbachzell,Upper Austria
4621,Sipbachzell,Upper Austria
4622,Eggendorf im Traunkreis,Upper Austria
4623,Gunskirchen,Upper Austria
4624,Pennewang,Upper Austria
4625,Offenhausen,Upper Austria
4625,Offenhausen,Upper Austria
4631,Krenglbach,Upper Austria
4631,Krenglbach,Upper Austria
4632,Pichl bei Wels,Upper Austria
4632,Pichl bei Wels,Upper Austria
4633,Kematen am Innbach,Upper Austria
4633,Kematen am Innbach,Upper Austria
4641,Steinhaus,Upper Austria
4642,Sattledt,Upper Austria
4643,Pettenbach,Upper Austria
4643,Pettenbach,Upper Austria
4644,Scharnstein,Upper Austria
4645,Grünau im Almtal,Upper Austria
4650,Lambach,Upper Austria
4651,Stadl-Paura,Upper Austria
4652,Steinerkirchen an der Traun,Upper Austria
4653,Eberstalzell,Upper Austria
4653,Eberstalzell,Upper Austria
4654,Bad Wimsbach-Neydharting,Upper Austria
4655,Vorchdorf,Upper Austria
4655,Vorchdorf,Upper Austria
4656,Kirchham,Upper Austria
4661,Roitham am Traunfall,Upper Austria
4662,Steyrermühl,Upper Austria
4663,Laakirchen,Upper Austria
4664,Oberweis,Upper Austria
4671,Neukirchen bei Lambach,Upper Austria
4672,Bachmanning,Upper Austria
4673,Gaspoltshofen,Upper Austria
4674,Altenhof am Hausruck,Upper Austria
4675,Weibern,Upper Austria
4676,Aistersheim,Upper Austria
4680, "Haag am Hausruck",Upper Austria
4680,Haag am Hausruck,Upper Austria
4681,Rottenbach,Upper Austria
4682,Geboltskirchen,Upper Austria
4690,Schwanenstadt,Upper Austria
4690,Schwanenstadt,Upper Austria
4691,Breitenschützing,Upper Austria
4692,Niederthalheim,Upper Austria
4692,Niederthalheim,Upper Austria
4693,Desselbrunn,Upper Austria
4694,Ohlsdorf,Upper Austria
4701,Bad Schallerbach,Upper Austria
4702,Wallern an der Trattnach,Upper Austria
4707,Schlüßlberg,Upper Austria
4710,Grieskirchen,Upper Austria
4712,Michaelnbach,Upper Austria
4713,Gallspach,Upper Austria
4714,Meggenhofen,Upper Austria
4715,Taufkirchen an der Trattnach,Upper Austria
4716,Hofkirchen an der Trattnach,Upper Austria
4720,Neumarkt im Hausruckkreis",Upper Austria
4721,Altschwendt,Upper Austria
4722,Peuerbach,Upper Austria
4723,Natternbach,Upper Austria
4724,Neukirchen am Walde,Upper Austria
4725,St. Aegidi,Upper Austria
4730,Waizenkirchen,Upper Austria
4731,Prambachkirchen,Upper Austria
4732,St. Thomas,Upper Austria
4733,Heiligenberg,Upper Austria
4741,Wendling,Upper Austria
4742,Pram,Upper Austria
4743,Peterskirchen,Upper Austria
4751,Dorf,Upper Austria
4751,Dorf,Upper Austria
4752,Riedau,Upper Austria
4753,Taiskirchen im Innkreis,Upper Austria
4754,Andrichsfurt,Upper Austria
4755,Zell an der Pram,Upper Austria
4760,Raab,Upper Austria
4761,Enzenkirchen,Upper Austria
4762,St. Willibald,Upper Austria
4770,Andorf,Upper Austria
4771,Sigharting,Upper Austria
4772,Lambrechten,Upper Austria
4773,Eggerding,Upper Austria
4774,St. Marienkirchen bei Schärding",Upper Austria
4775,Taufkirchen an der Pram,Upper Austria
4776,Diersbach,Upper Austria
4777,Mayrhof,Upper Austria
4780,Schärding,Upper Austria
4782,St. Florian am Inn,Upper Austria
4783,Wernstein am Inn,Upper Austria
4784,Schardenberg,Upper Austria
4785,Freinberg,Upper Austria
4786,Brunnenthal,Upper Austria
4791,Rainbach im Innkreis,Upper Austria
4792,Münzkirchen,Upper Austria
4793,St. Roman,Upper Austria
4794,Kopfing im Innkreis,Upper Austria
4800,Attnang-Puchheim,Upper Austria
4801,Traunkirchen,Upper Austria
4802,Ebensee,Upper Austria
4810,Gmunden,Upper Austria
4812,Pinsdorf,Upper Austria
4812,Pinsdorf,Upper Austria
4813,Altmünster,Upper Austria
4814,Neukirchen,Upper Austria
4814,Neukirchen,Upper Austria
4816,Gschwandt,Upper Austria
4817,St. Konrad,Upper Austria
4820,Bad Ischl,Upper Austria
4821,Lauffen,Upper Austria
4822,Bad Goisern am Hallstättersee,Upper Austria
4823,Steeg,Upper Austria
4824,Gosau,Upper Austria
4825,Gosau-Hintertal,Upper Austria
4830,Hallstatt,Upper Austria
4831,Obertraun,Upper Austria
4840,Vöcklabruck,Upper Austria
4841,Ungenach,Upper Austria
4842,Zell am Pettenfirst,Upper Austria
4843,Ampflwang,Upper Austria
4844,Regau,Upper Austria
4845,Rutzenmoos,Upper Austria
4845,Rutzenmoos,Upper Austria
4846,Redlham,Upper Austria
4849,Puchkirchen am Trattberg,Upper Austria
4850,Timelkam,Upper Austria
4851,Gampern,Upper Austria
4852,Weyregg am Attersee,Upper Austria
4853,Steinbach am Attersee,Upper Austria
4854,Weißenbach,Upper Austria
4854,Weißenbach,Upper Austria
4860,Lenzing,Upper Austria
4861,Schörfling,Upper Austria
4863,Seewalchen am Attersee,Upper Austria
4864,Attersee,Upper Austria
4865,Nußdorf am Attersee,Upper Austria
4866,Unterach,Upper Austria
4866,Unterach,Upper Austria
4870,Vöcklamarkt,Upper Austria
4871,Zipf,Upper Austria
4872,Neukirchen an der Vöckla,Upper Austria
4873,Frankenburg am Hausruck,Upper Austria
4880,St. Georgen im Attergau",Upper Austria
4881,Straß im Attergau,Upper Austria
4882,Oberwang,Upper Austria
4890,Frankenmarkt,Upper Austria
4891,Pöndorf,Upper Austria
4892,Fornach,Upper Austria
4893,Zell am Moos,Upper Austria
4894,Oberhofen am Irrsee,Upper Austria
4901,Ottnang,Upper Austria
4902,Wolfsegg am Hausruck,Upper Austria
4902,Wolfsegg am Hausruck,Upper Austria
4903,Manning,Upper Austria
4904,Atzbach,Upper Austria
4906,Eberschwang,Upper Austria
4910,Ried im Innkreis,Upper Austria
4911,Tumeltsham,Upper Austria
4912,Neuhofen im Innkreis,Upper Austria
4920,Schildorn,Upper Austria
4921,Hohenzell,Upper Austria
4922,Geiersberg,Upper Austria
4923,Lohnsburg,Upper Austria
4924,Waldzell,Upper Austria
4925,Pramet,Upper Austria
4926,St. Marienkirchen am Hausruck,Upper Austria
4931,Mettmach,Upper Austria
4931,Mettmach,Upper Austria
4932,Kirchheim im Innkreis,Upper Austria
4932,Kirchheim im Innkreis,Upper Austria
4933,Wildenau,Upper Austria
4941,Mehrnbach,Upper Austria
4942,Gurten,Upper Austria
4943,Geinberg,Upper Austria
4950,Altheim,Upper Austria
4951,Polling im Innkreis,Upper Austria
4952,Weng im Innkreis,Upper Austria
4961,Mühlheim am Inn,Upper Austria
4962,Mining,Upper Austria
4963,St. Peter am Hart,Upper Austria
4970,Eitzing,Upper Austria
4971,Aurolzmünster,Upper Austria
4972,Utzenaich,Upper Austria
4973,St. Martin,Upper Austria
4974,Ort im Innkreis,Upper Austria
4975,Suben,Upper Austria
4980,Antiesenhofen,Upper Austria
4981,Reichersberg,Upper Austria
4982,Obernberg am Inn,Upper Austria
4983,St. Georgen bei Obernberg am Inn,Upper Austria
4984,Weilbach,Upper Austria
5020,Salzburg,Salzburg
5023,Salzburg-Gnigl,Salzburg
5026,Salzburg-Aigen,Salzburg
5061,Elsbethen-Glasenbach,Salzburg
5071,Wals,Salzburg
5081,Anif,Salzburg
5082,Grödig,Salzburg
5083,Gartenau-St. Leonhard,Salzburg
5084,Großgmain,Salzburg
5090,Lofer,Salzburg
5091,Unken,Salzburg
5092,St. Martin bei Lofer,Salzburg
5093,Weißbach bei Lofer,Salzburg
5101,Bergheim,Salzburg
5102,Anthering,Salzburg
5110,Oberndorf near Salzburg,Salzburg
5111,Bürmoos,Salzburg
5112,Lamprechtshausen,Salzburg
5113,St. Georgen near Salzburg,Salzburg
5114,Göming,Salzburg
5120,St. Pantaleon,Upper Austria
5121,Ostermiething,Upper Austria
5122,Ach,Upper Austria
5123,Überackern,Upper Austria
5131,Franking,Upper Austria
5132,Geretsberg,Upper Austria
5133,Gilgenberg am Weilhart,Upper Austria
5134,Schwand im Innkreis,Upper Austria
5141,Moosdorf,Upper Austria
5142,Eggelsberg,Upper Austria
5143,Feldkirchen bei Mattighofen,Upper Austria
5144,Handenberg,Upper Austria
5145,Neukirchen an der Enknach,Upper Austria
5151,Nußdorf am Haunsberg,Salzburg
5152,Michaelbeuern,Salzburg
5161,Elixhausen,Salzburg
5162,Obertrum am See,Salzburg
5163,Mattsee,Salzburg
5164,Seeham,Salzburg
5165,Berndorf near Salzburg,Salzburg
5166,Perwang am Grabensee,Upper Austria
5201,Seekirchen,Salzburg
5202,Neumarkt am Wallersee,Salzburg
5202,Neumarkt am Wallersee,Salzburg
5203,Köstendorf,Salzburg
5204,Straßwalchen,Salzburg
5204,Straßwalchen,Salzburg
5205,Schleedorf,Salzburg
5211,Friedburg,Upper Austria
5212,Schneegattern,Upper Austria
5212,Schneegattern,Upper Austria
5221,Lochen am See,Upper Austria
5222,Munderfing,Upper Austria
5223,Pfaffstätt,Upper Austria
5224,Auerbach,Upper Austria
5225,Jeging,Upper Austria
5230,Mattighofen,Upper Austria
5231,Schalchen,Upper Austria
5232,Kirchberg bei Mattighofen,Upper Austria
5233,Pischelsdorf am Engelbach,Upper Austria
5241,Maria Schmolln,Upper Austria
5242,St. Johann am Walde",Upper Austria
5251,Höhnhart,Upper Austria
5252,Aspach,Upper Austria
5261,Uttendorf,Upper Austria
5270,Mauerkirchen,Upper Austria
5271,Moosbach,Upper Austria
5272,Treubach,Upper Austria
5273,Roßbach,Upper Austria
5274,Burgkirchen,Upper Austria
5280,Braunau am Inn,Upper Austria
5282,Braunau,Upper Austria
5300,Hallwang,Salzburg
5301,Eugendorf,Salzburg
5302,Henndorf am Wallersee,Salzburg
5303,Thalgau,Salzburg
5310,Mondsee,Upper Austria
5310,Mondsee,Upper Austria
5311,Loibichl,Upper Austria
5321,Koppl,Salzburg
5322,Hof bei Salzburg,Salzburg
5323,Ebenau,Salzburg
5323,Ebenau,Salzburg
5324,Faistenau,Salzburg
5325,Plainfeld,Salzburg
5330,Fuschl am See,Salzburg
5340,St. Gilgen,Salzburg
5342,Abersee,Salzburg
5350,Strobl,Salzburg
5360,St. Wolfgang im Salzkammergut,Upper Austria
5360,St. Wolfgang im Salzkammergut,Upper Austria
5400,Hallein,Salzburg
5411,Oberalm,Salzburg
5412,Puch near Hallein,Salzburg
5421,Adnet,Salzburg
5422,Heilbad Dürrnberg,Salzburg
5423,St. Koloman,Salzburg
5424,Bad Vigaun,Salzburg
5425,Krispl,Salzburg
5431,Kuchl,Salzburg
5440,Golling an der Salzach",Salzburg
5441,Abtenau,Salzburg
5442,Russbach at the pass Gschütt",Salzburg
5450,Werfen,Salzburg
5451,Tenneck,Salzburg
5452,Pfarrwerfen,Salzburg
5453,Werfenweng,Salzburg
5500,Bischofshofen,Salzburg
5505,Mühlbach am Hochkönig,Salzburg
5511,Hüttau,Salzburg
5521,Niedernfritz,Salzburg
5522,St. Martin am Tennengebirge,Salzburg
5523,Lungötz,Salzburg
5524,Annaberg,Salzburg
5531, "Eben im Pongau,Salzburg
5532,Filzmoos,Salzburg
5541,Altenmarkt im Pongau,Salzburg
5542,Flachau,Salzburg
5550,Radstadt,Salzburg
5552,Forstau,Salzburg
5561,Untertauern,Salzburg
5562,Obertauern,Salzburg
5562,Obertauern,Salzburg
5563,Tweng,Salzburg
5570,Mauterndorf,Salzburg
5571,Mariapfarr,Salzburg
5572,St. Andrä im Lungau,Salzburg
5573,Weißpriach,Salzburg
5574,Göriach,Salzburg
5575,Lessach,Salzburg
5580,Tamsweg,Salzburg
5581,St. Margarethen im Lungau,Salzburg
5582,St. Michael im Lungau,Salzburg
5583,Muhr,Salzburg
5584,Zederhaus,Salzburg
5585,Unternberg,Salzburg
5591,Ramingstein,Salzburg
5592,Thomatal,Salzburg
5600,St. Johann im Pongau,Salzburg
5602,Wagrain,Salzburg
5603,Kleinarl,Salzburg
5611,Großarl,Salzburg
5612,Hüttschlag,Salzburg
5620,Schwarzach im Pongau,Salzburg
5621,St. Veit im Pongau,Salzburg
5622,Goldegg,Salzburg
5630,Bad Hofgastein",Salzburg
5632,Dorfgastein,Salzburg
5640,Bad Gastein,Salzburg
5645,Böckstein,Salzburg
5651,Lend,Salzburg
5652,Dienten am Hochkönig,Salzburg
5660,Taxenbach,Salzburg
5661,Rauris,Salzburg
5662,Gries,Salzburg
5671, "Bruck an der Großglocknerstraße",Salzburg
5672, "Fusch an der Glocknerstraße",Salzburg
5700, "Zell am See",Salzburg
5710,Kaprun,Salzburg
5721,Piesendorf,Salzburg
5722,Niedernsill,Salzburg
5723,Uttendorf,Salzburg
5724,Stuhlfelden,Salzburg
5730,Mittersill,Salzburg
5731,Hollersbach im Pinzgau,Salzburg
5732,Mühlbach,Salzburg
5733, "Bramberg am Wildkogel",Salzburg
5741, "Neukirchen am Großvenediger",Salzburg
5742, "Wald im Pinzgau",Salzburg
5743,Krimml,Salzburg
5751,Maishofen,Salzburg
5752,Viehhofen,Salzburg
5753,Saalbach,Salzburg
5754,Hinterglemm,Salzburg
5760, "Saalfelden am Steinernen Meer",Salzburg
5761, "Maria Alm am Steinernen Meer",Salzburg
5771,Leogang,Salzburg
6020,Innsbruck,Tyrol
6060,Hall in Tirol,Tyrol
6063,Rum,Tyrol
6065,Thaur,Tyrol
6067,Absam,Tyrol
6068,Mils,Tyrol
6069,Gnadenwald,Tyrol
6070,Ampass,Tirol
6071,Aldrans,Tyrol
6072,Lans,Tyrol
6073,Sistrans,Tyrol
6074,Rinn,Tyrol
6075,Tulfes,Tyrol
6080,Innsbruck-Igls,Tyrol
6082,Patsch,Tyrol
6083,Ellbögen,Tyrol
6091,Götzens,Tyrol
6092,Birgitz,Tyrol
6094,Axams,Tyrol
6095,Grinzens,Tyrol
6100,Seefeld in Tirol,Tyrol
6103,Reith bei Seefeld,Tyrol
6105,Leutasch,Tyrol
6108,Scharnitz,Tyrol
6111,Volders,Tyrol
6112,Wattens,Tyrol
6113,Wattenberg,Tyrol
6114,Kolsass,Tyrol
6115,Kolsassberg,Tirol
6116,Weer,Tyrol
6121,Baumkirchen,Tyrol
6122,Fritzens,Tirol
6123,Terfens,Tirol
6130,Schwaz,Tyrol
6133,Weerberg,Tyrol
6134,Vomp,Tyrol
6135,Stans,Tyrol
6136,Pill,Tyrol
6141,Schönberg in the Stubaital,Tyrol
6142,Mieders,Tyrol
6143,Matrei am Brenner,Tyrol
6145,Navis,Tyrol
6150, "Steinach am Brenner",Tyrol
6152,Trins,Tyrol
6154, "St. Jodok am Brenner",Tyrol
6156, "Gries am Brenner",Tyrol
6157, "Obernberg am Brenner",Tyrol
6161,Natters,Tyrol
6162,Mutters,Tyrol
6165,Telfes in the Stubai,Tyrol
6166,Fulpmes,Tyrol
6167,Neustift in the Stubai Valley,Tyrol
6170,Zirl,Tyrol
6173,Oberperfuss,Tyrol
6175,Kematen in Tirol,Tyrol
6176,Völs,Tyrol
6178,Unterperfuss,Tyrol
6179,Ranggen,Tirol
6181,Sellrain,Tyrol
6182, "Gries im Sellrain",Tyrol
6182, "Gries im Sellrain",Tirol
6183,Kühtai,Tyrol
6184, "St. Sigmund",Tyrol
6200,Jenbach,Tyrol
6210,Wiesing,Tyrol
6212,Maurach,Tyrol
6213,Pertisau,Tyrol
6215,Achenkirch,Tyrol
6220,Buch in Tirol,Tirol
6222,Gallzein,Tyrol
6230,Brixlegg,Tyrol
6232,Münster,Tyrol
6233,Kramsach,Tyrol
6234,Brandenberg,Tyrol
6235,Reith im Alpbachtal,Tyrol
6236,Alpbach,Tyrol
6240,Rattenberg,Tyrol
6241,Radfeld,Tyrol
6250,Kundl,Tyrol
6252,Breitenbach am Inn,Tyrol
6260, "Bruck am Ziller",Tyrol
6261, "Strass im Zillertal",Tyrol
6262,Schlitters,Tirol
6263,Fügen,Tirol
6264,Fügenberg,Tyrol
6265,Hart in the Zillertal,Tyrol
6271,Uderns,Tirol
6272,Kaltenbach,Tyrol
6273,Ried im Zillertal,Tyrol
6274,Aschau,Tyrol
6275,Stumm,Tyrol
6276,Stummerberg,Tyrol
6277,Zellberg,Tyrol
6278,Hainzenberg,Tyrol
6280,Zell am Ziller,Tirol
6281,Gerlos,Tyrol
6283,Hippach,Tyrol
6284,Ramsau in the Zillertal,Tyrol
6290,Mayrhofen,Tyrol
6292,Finkenberg,Tyrol
6293,Tux,Tyrol
6294,Hintertux,Tyrol
6295,Ginzling,Tirol
6300,Wörgl,Tirol
6305,Itter,Tirol
6306,Söll,Tirol
6311,Wildschönau-Oberau,Tirol
6313,Wildschönau-Auffach,Tirol
6314,Wildschönau-Niederau,Tirol
6320,Angerberg,Tirol
6321,Angath,Tirol
6322,Kirchbichl,Tyrol
6323,Bad Häring,Tyrol
6324,Mariastein,Tyrol
6330,Kufstein,Tyrol
6334,Schwoich,Tyrol
6335,Thiersee,Tyrol
6336,Langkampfen,Tyrol
6341,Ebbs,Tyrol
6342,Niederndorf,Tyrol
6343,Erl,Tyrol
6344,Walchsee,Tyrol
6345,Kössen,Tyrol
6346,Niederndorferberg,Tyrol
6347,Rettenschöss,Tyrol
6351,Scheffau am Wilden Kaiser,Tyrol
6352,Ellmau,Tyrol
6353,Going am Wilden Kaiser,Tyrol
6361,Hopfgarten,Tyrol
6363,Westendorf,Tyrol
6364, "Brixen im Thale",Tyrol
6365, "Kirchberg in Tirol",Tyrol
6370,Kitzbühel,Tyrol
6371,Aurach,Tyrol
6372, "Oberndorf in Tirol",Tyrol
6373,Jochberg,Tyrol
6380, "St. Johann in Tyrol",Tyrol
6382, "Kirchdorf in Tirol",Tyrol
6383,Erpfendorf,Tyrol
6384,Waidring,Tyrol
6385,Schwendt,Tyrol
6391,Fieberbrunn,Tyrol
6392, "St. Jakob in Haus",Tyrol
6393,St. Ulrich am Pillersee,Tyrol
6395,Hochfilzen,Tyrol
6401,Inzing,Tyrol
6402,Hatting,Tyrol
6403,Flaurling,Tyrol
6404,Polling,Tirol
6405,Pfaffenhofen,Tyrol
6406,Oberhofen im Inntal,Tyrol
6408,Pettnau,Tyrol
6410,Telfs,Tyrol
6413,Wildermieming,Tyrol
6414,Mieming,Tyrol
6416,Obsteig,Tyrol
6421,Rietz,Tyrol
6422,Stams,Tirol
6423,Mötz,Tyrol
6424,Silz,Tirol
6425,Haiming,Tirol
6426,Roppen,Tyrol
6430,Ötztal train station,Tyrol
6432,Sautens,Tyrol
6433,Oetz,Tyrol
6441,Umhausen,Tyrol
6444,Längenfeld,Tyrol
6450,Sölden,Tyrol
6452,Hochsölden,Tyrol
6456,Obergurgl,Tyrol
6458,Vent,Tyrol
6460,Imst,Tyrol
6462,Karres,Tyrol
6463,Karrösten,Tyrol
6464,Tarrenz,Tyrol
6465,Nassereith,Tyrol
6471,Arzl im Pitztal,Tyrol
6473,Wenns,Tyrol
6474,Jerzens,Tyrol
6481, "St. Leonhard in the Pitztal",Tyrol
6491,Schönwies,Tyrol
6492,Imsterberg,Tyrol
6493,Mils,Tyrol
6500,Landeck,Tyrol
6511,Zams,Tyrol
6521,Fließ,Tyrol
6522,Prutz,Tyrol
6524,Feichten im Kaunertal,Tyrol
6525,Faggen,Tyrol
6526,Kauns,Tyrol
6527,Kaunerberg,Tyrol
6528,Fendels,Tyrol
6531,Ried im Oberinntal,Tyrol
6532,Ladis,Tyrol
6533,Fiss,Tyrol
6534,Serfaus,Tyrol
6541,Tösens,Tyrol
6542,Pfunds,Tyrol
6543,Nauders,Tyrol
6544,Spiss,Tyrol
6551,Pians,Tyrol
6552,Tobadill,Tyrol
6553,See,Tyrol
6555,Kappl,Tyrol
6561,Ischgl,Tyrol
6562,Mathon,Tyrol
6563,Galtür,Tyrol
6571,Strengen,Tirol
6572,Flirsch,Tyrol
6574,Pettneu am Arlberg,Tyrol
6580,St. Anton am Arlberg,Tyrol
6591,Grins,Tyrol
6600,Reutte,Tyrol
6604,Höfen,Tyrol
6610,Wängle,Tyrol
6611,Heiterwang,Tyrol
6621,Bichlbach,Tyrol
6622,Berwang,Tyrol
6623,Namlos,Tyrol
6631,Lermoos,Tyrol
6632,Ehrwald,Tyrol
6633,Biberwier,Tyrol
6642,Stanzach,Tyrol
6644,Elmen,Tyrol
6645,Vorderhornbach,Tyrol
6646,Hinterhornbach,Tyrol
6647,Pfafflar,Tyrol
6650,Gramais,Tyrol
6651,Häselgehr,Tyrol
6652,Elbigenalp,Tyrol
6653,Bach,Tyrol
6654,Holzgau,Tyrol
6655,Steeg,Tyrol
6670,Forchach,Tyrol
6671,Weißenbach am Lech,Tyrol
6672,Nesselwängle,Tyrol
6673,Grän,Tyrol
6675,Tannheim,Tyrol
6677,Schattwald,Tyrol
6682,Vils,Tyrol
6691,Jungholz,Tyrol
6700,Bludenz,Vorarlberg
6706,Bürs,Vorarlberg
6707,Bürserberg,Vorarlberg
6708,Brand,Vorarlberg
6710,Nenzing,Vorarlberg
6712,Thuringia,Vorarlberg
6713,Ludesch,Vorarlberg
6714,Nüziders,Vorarlberg
6719,Bludesch,Vorarlberg
6721,Thüringerberg,Vorarlberg
6722,St. Gerold,Vorarlberg
6723,Blons,Vorarlberg
6731,Sonntag,Vorarlberg
6733,Fontanella,Vorarlberg
6741,Raggal,Vorarlberg
6751,Braz,Vorarlberg
6752,Dalaas,Vorarlberg
6754,Klösterle,Vorarlberg
6762,Stuben,Vorarlberg
6763,Zürs,Vorarlberg
6764,Lech,Vorarlberg
6767,Warth,Vorarlberg
6767,Warth,Vorarlberg
6771,St. Anton im Montafon,Vorarlberg
6773,Vandans,Vorarlberg
6774,Tschagguns,Vorarlberg
6780,Schruns,Vorarlberg
6781,Bartholomaeberg,Vorarlberg
6782,Silbertal,Vorarlberg
6787,Gargellen,Vorarlberg
6791,St. Gallenkirch,Vorarlberg
6793,Gaschurn,Vorarlberg
6794,Partenen,Vorarlberg
6800,Feldkirch,Vorarlberg
6811,Göfis,Vorarlberg
6812,Meiningen,Vorarlberg
6820,Frastanz,Vorarlberg
6820,Frastanz,Vorarlberg
6822,Satteins,Vorarlberg
6824,Schlins,Vorarlberg
6830,Rankweil,Vorarlberg
6832,Sulz-Röthis,Vorarlberg
6833,Klaus-Weiler,Vorarlberg
6834,Übersaxen,Vorarlberg
6835,Zwischenwasser,Vorarlberg
6836,Viktorsberg,Vorarlberg
6837,Weiler,Vorarlberg
6840,Götzis,Vorarlberg
6841,Mäder,Vorarlberg
6842,Koblach,Vorarlberg
6844,Altach,Vorarlberg
6845,Hohenems,Vorarlberg
6850,Dornbirn,Vorarlberg
6858,Schwarzach,Vorarlberg
6861,Alberschwende,Vorarlberg
6863,Egg,Vorarlberg
6866,Andelsbuch,Vorarlberg
6867,Schwarzenberg,Vorarlberg
6870,Bezau,Vorarlberg
6874,Bizau,Vorarlberg
6881,Mellau,Vorarlberg
6882,Schnepfau,Vorarlberg
6883,Au,Vorarlberg
6884,Damüls,Vorarlberg
6886,Schoppernau,Vorarlberg
6888,Schröcken,Vorarlberg
6890,Lustenau,Vorarlberg
6900,Bregenz,Vorarlberg
6911,Lochau,Vorarlberg
6912,Hörbranz,Vorarlberg
6914,Hohenweiler,Vorarlberg
6921,Kennelbach,Vorarlberg
6922,Wolfurt,Vorarlberg
6923,Lauterach,Vorarlberg
6932,Langen bei Bregenz,Vorarlberg
6933,Doren,Vorarlberg
6934,Sulzberg,Vorarlberg
6941,Langenegg,Vorarlberg
6942,Krumbach,Vorarlberg
6943,Riefensberg,Vorarlberg
6951,Lingenau,Vorarlberg
6952,Hittisau,Vorarlberg
6960,Wolfurt-Bahnhof,Vorarlberg
6971,Hard,Vorarlberg
6972,Fußach,Vorarlberg
6973,Höchst,Vorarlberg
6974,Gaißau,Vorarlberg
6991,Riezlern,Vorarlberg
6992,Hirschegg,Vorarlberg
6993,Mittelberg,Vorarlberg
7000,Eisenstadt,Burgenland
7011,Siegendorf,Burgenland
7012,Zagersdorf,Burgenland
7013,Klingenbach,Burgenland
7020,Loipersbach im Burgenland,Burgenland
7021,Draßburg,Burgenland
7022,Schattendorf,Burgenland
7023,Zemendorf,Burgenland
7024,Hirm,Burgenland
7031,Krensdorf,Burgenland
7032,Sigleß,Burgenland
7033,Pöttsching,Burgenland
7034,Zillingtal,Burgenland
7035,Steinbrunn,Burgenland
7041,Wulkaprodersdorf,Burgenland
7042,Antau,Burgenland
7051,Großhöflein,Burgenland
7052,Müllendorf,Burgenland
7053,Hornstein,Burgenland
7061, "Trausdorf an der Wulka",Burgenland
7062, "St. Margarethen im Burgenland",Burgenland
7063,Oggau,Burgenland
7064,Oslip,Burgenland
7071,Rust,Burgenland
7072, "Mörbisch am See",Burgenland
7081,Schützen am Gebirge,Burgenland
7082,Donnerskirchen,Burgenland
7083, "Purbach am Neusiedler See",Burgenland
7091, "Breitenbrunn am Neusiedler See",Burgenland
7092, "Winden am See",Burgenland
7093,Jois,Burgenland
7100, "Neusiedl am See",Burgenland
7111,Parndorf,Burgenland
7121,Weiden am See,Burgenland
7122,Gols,Burgenland
7123,Mönchhof,Burgenland
7131,Halbturn,Burgenland
7132,Frauenkirchen,Burgenland
7141,Podersdorf am See,Burgenland
7142,Illmitz,Burgenland
7143,Apetlon,Burgenland
7151,Wallern im Burgenland,Burgenland
7152,Pamhagen,Burgenland
7161, "St. Andrä am Zicksee",Burgenland
7162,Tadten,Burgenland
7163,Andau,Burgenland
7201,Neudörfl,Burgenland
7202,Bad Sauerbrunn,Burgenland
7203,Wiesen,Burgenland
7210,Mattersburg,Burgenland
7212,Forchtenstein,Burgenland
7221,Marz,Burgenland
7222,Rohrbach near Mattersburg,Burgenland
7223,Sieggraben,Burgenland
7301,Deutschkreutz,Burgenland
7302,Nikitsch,Burgenland
7304,Großwarasdorf,Burgenland
7311,Neckenmarkt,Burgenland
7312,Horitschon,Burgenland
7321,Lackendorf,Burgenland
7322,Lackenbach,Burgenland
7323,Ritzing,Burgenland
7331,Weppersdorf,Burgenland
7332,Kobersdorf,Burgenland
7341, "Markt St. Martin",Burgenland
7342,Kaisersdorf,Burgenland
7343,Neutal,Burgenland
7344,Stoob,Burgenland
7350,Oberpullendorf,Burgenland
7361,Lutzmannsburg,Burgenland
7371,Unterrabnitz,Burgenland
7372,Draßmarkt,Burgenland
7373,Piringsdorf,Burgenland
7374,Weingraben,Burgenland
7400,Oberwart,Burgenland
7410,Loipersdorf-Kitzladen,Burgenland
7411,Markt Allhau,Burgenland
7412,Wolfau,Burgenland
7421,Tauchen-Schaueregg,Styria
7422,Riedlingsdorf,Burgenland
7423,Pinkafeld,Burgenland
7423,Pinkafeld,Burgenland
7425,Wiesfleck,Burgenland
7431,Bad Tatzmannsdorf,Burgenland
7432,Oberschützen,Burgenland
7433,Mariasdorf,Burgenland
7434,Bernstein,Burgenland
7435,Unterkohlstätten,Burgenland
7441,Pilgersdorf,Burgenland
7442,Lockenhaus,Burgenland
7443,Rattersdorf-Liebing,Burgenland
7444,Mannersdorf an der Rabnitz,Burgenland
7451,Oberloisdorf,Burgenland
7452,Unterpullendorf,Burgenland
7453,Steinberg-Dörfl,Burgenland
7461,Stadtschlaining,Burgenland
7463,Weiden bei Rechnitz,Burgenland
7464,Markt Neuhodis,Burgenland
7471,Rechnitz,Burgenland
7472,Schachendorf,Burgenland
7473,Hannersdorf,Burgenland
7474,Deutsch Schützen,Burgenland
7501,Rotenturm an der Pinka,Burgenland
7502,Unterwart,Burgenland
7503,Großpetersdorf,Burgenland
7511,Mischendorf,Burgenland
7512,Kohfidisch,Burgenland
7521,Eberau,Burgenland
7522,Strem,Burgenland
7531,Kemeten,Burgenland
7532,Litzelsdorf,Burgenland
7533,Ollersdorf,Burgenland,Burgenland
7534,Olbendorf,Burgenland
7535, "St. Michael im Burgenland",Burgenland
7536,Güttenbach,Burgenland
7537,Neuberg im Burgenland,Burgenland
7540,Güssing,Burgenland
7542,Gerersdorf bei Güssing,Burgenland
7543,Kukmirn,Burgenland
7544,Tobaj,Burgenland
7545,Neustift bei Güssing,Burgenland
7551,Stegersbach,Burgenland
7552,Stinatz,Burgenland
7561,Heiligenkreuz im Lafnitztal,Burgenland
7562,Eltendorf,Burgenland
7563,Königsdorf,Burgenland
7564,Dobersdorf,Burgenland
7571,Rudersdorf,Burgenland
7572,Deutsch Kaltenbrunn,Burgenland
7574,Burgauberg-Neudauberg,Burgenland
8010,Graz,Styria
8020,Graz,Styria
8036,Graz,Styria
8041,Graz-Liebenau,Styria
8042,Graz-St. Peter,Styria
8043,Graz-Kroisbach,Styria
8044,Graz-Mariatrost,Styria
8045,Graz-Andritz,Styria
8046,Graz-St. Veit,Styria
8047,Graz-Ragnitz,Styria
8051,Graz-Gösting,Styria
8052,Graz-Wetzelsdorf,Styria
8053,Graz-Neuhart,Styria
8054,Graz-Straßgang,Styria
8055,Graz-Puntigam,Styria
8061,St. Radegund near Graz,Styria
8062,Kumberg,Styria
8063, "Eggersdorf near Graz",Styria
8071,Hausmannstätten,Styria
8072,Fernitz,Styria
8073, "Feldkirchen near Graz",Styria
8074,Raaba,Styria
8075,Hart bei Graz,Styria
8076,Vasoldsberg,Styria
8077,Gössendorf,Styria
8081, "Heiligenkreuz am Waasen",Styria
8082, "Kirchbach in Styria",Styria
8083, "St. Stefan im Rosental",Styria
8091,Jagerberg,Styria
8092, "Mettersdorf am Saßbach",Styria
8093, "St. Peter am Ottersbach",Styria
8101,Gratkorn,Styria
8102,Semriach,Styria
8103,Rein,Styria
8111,Judendorf-Straßengel,Styria
8112,Gratwein,Styria
8113,St. Oswald bei Plankenwarth,Styria
8114,Stübing,Styria
8120,Peggau,Styria
8121,Deutschfeistritz,Styria
8122,Waldstein,Styria
8124,Übelbach,Styria
8130,Frohnleiten,Styria
8131,Mixnitz,Styria
8132,Pernegg an der Mur,Styria
8141,Unterpremstätten,Styria
8142,Wundschuh,Styria
8143,Dobl,Styria
8144,Tobelbad,Styria
8151,Hitzendorf,Styria
8152,Stallhofen,Styria
8153,Geistthal,Styria
8160,Weiz,Styria
8162,Passail,Styria
8163, "Fladnitz an der Teichalm",Styria
8171, "St. Kathrein am Offenegg",Styria
8172,Heilbrunn,Styria
8181, "St. Ruprecht an der Raab",Styria
8182, "Puch bei Weiz",Styria
8183,Floing,Styria
8184,Anger,Styria
8190,Birkfeld,Styria
8191,Koglhof,Styria
8192,Strallegg,Styria
8200,Gleisdorf,Styria
8211,Ilztal,Styria
8212, "Pischelsdorf am Kulm",Styria
8221,Hirnsdorf,Styria
8222, "St. Johann near Herberstein",Styria
8223, "Stubenberg am See",Styria
8224, "Kaindorf bei Hartberg",Styria
8225, "Pöllau bei Hartberg",Styria
8230,Hartberg,Styria
8232, "Grafendorf bei Hartberg",Styria
8233,Lafnitz,Styria
8234, "Rohrbach an der Lafnitz",Styria
8240,Friedberg,Styria
8241,Dechantskirchen,Styria
8242, "St. Lorenzen am Wechsel",Styria
8243,Pinggau,Styria
8244,Schäffern,Styria
8250,Vorau,Styria
8251,Bruck an der Lafnitz,Styria
8252,Mönichwald,Styria
8253,Waldbach,Styria
8254,Wenigzell,Styria
8255,St. Jakob,Styria
8261,Sinabelkirchen,Styria
8262,Ilz,Styria
8263,Großwilfersdorf,Styria
8264,Hainersdorf,Styria
8265,Großsteinbach,Styria
8271,Bad Waltersdorf,Styria
8272,Sebersdorf,Styria
8273,Ebersdorf,Styria
8274,Buch,Styria
8280,Fürstenfeld,Styria
8282,Bad Loipersdorf,Styria
8283,Bad Blumau,Styria
8291,Burgau,Styria
8292,Neudau,Styria
8293, "Wörth an der Lafnitz",Styria
8294,Unterrohr,Styria
8295, "St. Johann in der Haide",Styria
8301,Laßnitzhöhe,Styria
8302, "Nestelbach near Graz",Styria
8311, "Markt Hartmannsdorf",Styria
8312, "Ottendorf an der Rittschein",Styria
8313, "Breitenfeld an der Rittschein",Styria
8321, "St. Margarethen an der Raab",Styria
8322,Studenzen,Styria
8323, "St. Marein near Graz",Styria
8324, "Kirchberg an der Raab",Styria
8330,Feldbach,Styria
8332, "Edelsbach bei Feldbach",Styria
8333,Riegersburg,Styria
8334,Lödersdorf,Styria
8341,Paldau,Styria
8342,Gnas,Styria
8343, "Trautmannsdorf in Eastern Styria",Styria
8344, "Bad Gleichenberg",Styria
8345,Straden,Styria
8350,Fehring,Styria
8352,Unterlamm,Styria
8353,Kapfenstein,Styria
8354,St. Anna am Aigen,Styria
8355,Tieschen,Styria
8361,Hatzendorf,Styria
8362,Söchau,Styria
8380,Jennersdorf,Burgenland
8382,Mogersdorf,Burgenland
8383,St. Martin an der Raab,Burgenland
8384,Minihof-Liebau,Burgenland
8385, "Neuhaus am Klausenbach",Burgenland
8401, "Kalsdorf bei Graz",Styria
8402,Werndorf,Styria
8403,Lebring,Styria
8410,Wildon,Styria
8411,Hengsberg,Styria
8412, "Allerheiligen bei Wildon",Styria
8413, "St. Georgen an der Stiefing",Styria
8421, "Wolfsberg im Schwarzautal",Styria
8422, "St. Nikolai ob Draßling",Styria
8423, "St. Veit am Vogau",Styria
8424,Gabersdorf,Styria
8430,Leibnitz,Styria
8431,Gralla,Styria
8434,Tillmitsch,Styria
8435,Wagna,Styria
8441,Fresing,Styria
8442,Kitzeck im Sausal,Styria
8443,Gleinstätten,Styria
8444, "St. Andrä im Sausal",Styria
8451,Heimschuh,Styria
8452,Großklein,Styria
8453, "St. Johann im Saggautal",Styria
8454,Arnfels,Styria
8455,Oberhaag,Styria
8461,Ehrenhausen,Styria
8462,Gamlitz,Styria
8463,Leutschach,Styria
8471,Spielfeld,Styria
8472,Straß in Styria,Styria
8473, "Weitersfeld an der Mur",Styria
8480,Mureck,Styria
8481, "Weinburg am Saßbach",Styria
8483, "Deutsch Goritz",Styria
8484,Unterpurkla,Styria
8490, "Bad Radkersburg",Styria
8492,Halbenrain,Styria
8493,Klöch,Styria
8501,Lieboch,Styria
8502,Lannach,Styria
8503, "St. Josef West Styria",Styria
8503, "St. Josef West Styria",Styria
8504,Preding,Styria
8504,Preding,Styria
8504,Preding,Styria
8505,St. Nikolai im Sausal,Styria
8510,Stainz,Styria
8511,St. Stefan ob Stainz,Styria
8521,Wettmannstätten,Styria
8521,Wettmannstätten,Styria
8522, "Groß St. Florian",Styria
8523, "Frauental an der Laßnitz",Styria
8524, "Bad Gams",Styria
8530,Deutschlandsberg,Styria
8541,Schwanberg,Styria
8542, "St. Peter im Sulmtal",Styria
8543, "St. Martin im Sulmtal",Styria
8544,Pölfing-Brunn,Styria
8551,Wies,Styria
8552,Eibiswald,Styria
8553,St. Oswald ob Eibiswald,Styria
8554,Soboth,Styria
8561,Söding,Styria
8561,Söding,Styria
8562,Mooskirchen,Styria
8562,Mooskirchen,Styria
8563,Ligist,Styria
8563,Ligist,Styria
8564,Krottendorf-Gaisfeld,Styria
8565,St. Johann ob Hohenburg,Styria
8570,Voitsberg,Styria
8572,Bärnbach,Styria
8573, "Kainach near Voitsberg",Styria
8580,Köflach,Styria
8582,Rosental an der Kainach,Styria
8583,Edelschrott,Styria
8584,Hirschegg,Styria
8591, "Maria Lankowitz",Styria
8592,Salla,Styria
8593,Graden,Styria
8600,Bruck an der Mur,Styria
8605,Kapfenberg,Styria
8611, "St. Katharein an der Laming",Styria
8612,Tragöß-Oberort,Styria
8614,Breitenau,Styria
8616,Gasen,Styria
8621,Thörl,Styria
8622,Etmißl,Styria
8623,Aflenz Kurort,Styria
8624,Au,Styria
8625,Turnau,Styria
8630,Mariazell,Styria
8632,Gußwerk,Styria
8634,Wegscheid,Styria
8635,Gollrad,Styria
8636,Seewiesen,Styria
8641, "St. Marein im Mürztal",Styria
8642, "St. Lorenzen im Mürztal",Styria
8643, "Allerheiligen im Mürztal",Styria
8644,Mürzhofen,Styria
8650,Kindberg,Styria
8652,Kindberg-Aumühl,Styria
8653,Stanz im Mürztal,Styria
8654,Fischbach,Styria
8661, "Wartberg im Mürztal",Styria
8662, "Mitterdorf im Mürztal",Styria
8663, "Dorf Veitsch",Styria
8664,Großveitsch,Styria
8665,Langenwang,Styria
8670,Krieglach,Styria
8671,Alpl,Styria
8672,St. Kathrein am Hauenstein,Styria
8673,Ratten,Styria
8674,Rettenegg,Styria
8680,Mürzzuschlag,Styria
8682,Mürzzuschlag-Hönigsberg,Styria
8684,Spital am Semmering,Styria
8685, "Steinhaus am Semmering",Styria
8691,Kapellen,Styria
8692, "Neuberg an der Mürz",Styria
8693,Mürzsteg,Styria
8694, "Frein an der Mürz",Styria
8700,Leoben,Styria
8712,Niklasdorf,Styria
8713, "St. Stefan ob Leoben",Styria
8714, "Kraubath an der Mur",Styria
8715, "St. Lorenzen bei Knittelfeld",Styria
8720,Knittelfeld,Styria
8723,Kobenz,Styria
8724,Spielberg,Styria
8731,Bischoffeld,Styria
8732,Seckau,Styria
8733,St. Marein bei Knittelfeld,Styria
8734,Großlobming,Styria
8740,Zeltweg,Styria
8741, "Weißkirchen in Styria",Styria
8742,Obdach,Styria
8750,Judenburg,Styria
8753,Fohnsdorf,Styria
8754,Thalheim,Styria
8755, "St. Peter ob Judenburg",Styria
8756, "St. Georgen ob Judenburg",Styria
8761,Pöls,Styria
8762,Oberzeiring,Styria
8763,Möderbrugg,Styria
8764,Pusterwald,Styria
8765, "St. Johann am Tauern",Styria
8770, "St. Michael in Upper Styria",Styria
8772,Timmersdorf,Styria
8773, "Kammern in Liesingtal",Styria
8774, "Mautern in Styria",Styria
8775,Kalwang,Styria
8781, "Wald am Schoberpaß",Styria
8782,Treglwang,Styria
8783, "Gaishorn am See",Styria
8784,Trieben,Styria
8785,Hohentauern,Styria
8786,Rottenmann,Styria
8790,Eisenerz,Styria
8792,St. Peter-Freienstein,Styria
8793,Trofaiach,Styria
8794,Vordernberg,Styria
8795,Radmer,Styria
8800,Unzmarkt,Styria
8811,Scheifling,Styria
8812,Mariahof,Styria
8813,St. Lambrecht,Styria
8820, "Neumarkt in Styria",Styria
8822,Mills,Styria
8822,Mühlen,Styria
8831,Niederwölz,Styria
8832,Oberwölz,Styria
8833,Teufenbach,Styria
8841,Frojach,Styria
8842, "Katsch an der Mur",Styria
8843, "St. Peter am Kammersberg",Styria
8844,Schöder,Styria
8850,Murau,Styria
8850,Murau,Styria
8852,Stolzalpe,Styria
8853,Ranten,Styria
8854,Krakaudorf,Styria
8861, "St. Georgen ob Murau",Styria
8862, "Stadl an der Mur",Styria
8863,Predlitz,Styria
8864,Turrach,Styria
8900,Selzthal,Styria
8903,Lassing,Styria
8904,Ardning,Styria
8911,Admont,Styria
8912,Johnsbach,Styria
8913,Weng,Styria
8920,Hieflau,Styria
8921,Lainbach,Styria
8922,Gams bei Hieflau,Styria
8923,Palfau,Styria
8924,Wildalpen,Styria
8931,Landl,Styria
8932, "Weißenbach an der Enns",Styria
8933, "St. Gallen",Styria
8934, "Altenmarkt near St. Gallen",Styria
8940,Liezen,Styria
8942,Wörschach,Styria
8943, "Aigen im Ennstal",Styria
8950,Stainach,Styria
8951,Trautenfels,Styria
8952,Irdning,Styria
8953,Donnersbach,Styria
8954,St. Martin am Grimming,Styria
8960,Öblarn,Styria
8961, "Stein an der Enns",Styria
8962,Gröbming,Styria
8965,Pruggern,Styria
8966,Aich-Assach,Styria
8967,Haus,Styria
8970,Schladming,Styria
8971,Rohrmoos-Untertal,Styria
8972,Ramsau,Styria
8973,Pichl,Styria
8974,Mandling,Styria
8982,Tauplitz,Styria
8983,Bad Mitterndorf,Styria
8984,Kainisch,Styria
8990,Bad Aussee,Styria
8992,Altaussee,Styria
8993,Grundlsee,Styria
9020, "Klagenfurt on Lake Wörthersee",Carinthia
9061,Klagenfurt-Wölfnitz,Carinthia
9062,Moosburg,Carinthia
9063,Maria Saal,Carinthia
9064,Pischeldorf,Carinthia
9065,Ebenthal,Carinthia
9071,Köttmannsdorf,Carinthia
9072,Ludmannsdorf,Carinthia
9073,Klagenfurt-Viktring,Carinthia
9074,Keutschach,Carinthia
9081,Reifnitz,Carinthia
9082,Maria Wörth,Carinthia
9100,Völkermarkt,Carinthia
9102,Mittertrixen,Carinthia
9103,Diex,Carinthia
9111,Haimburg,Carinthia
9112,Griffen,Carinthia
9113,Ruden,Carinthia
9121,Tainach,Carinthia
9122, "St. Kanzian at the Klopeiner lake",Carinthia
9123, "St. Primus",Carinthia
9125,Kühnsdorf,Carinthia
9130,Poggersdorf,Carinthia
9131,Grafenstein,Carinthia
9132,Gallizien,Carinthia
9133,Sittersdorf,Carinthia
9135,Bad Eisenkappel,Carinthia
9141,Eberndorf,Carinthia
9142,Globasnitz,Carinthia
9143,St. Michael ob Bleiburg,Carinthia
9150,Bleiburg,Carinthia
9155,Neuhaus,Carinthia
9161, "Maria Rain",Carinthia
9162,Strau,Carinthia
9163,Unterbergen,Carinthia
9170,Ferlach,Carinthia
9173, "St. Margareten im Rosental",Carinthia
9181, "Feistritz im Rosental",Carinthia
9182, "Maria Elend",Carinthia
9183,Rosenbach,Carinthia
9184, "St. Jakob im Rosental",Carinthia
9201,Krumpendorf,Carinthia
9210, "Pörtschach on Lake Wörth",Carinthia
9212, "Techelsberg on Lake Wörth",Carinthia
9220, "Velden on Lake Wörth",Carinthia
9231,Köstenberg,Carinthia
9232,Rosegg,Carinthia
9241,Wernberg,Carinthia
9300,St. Veit an der Glan,Carinthia
9311,Kraig,Carinthia
9312,Meiselding,Carinthia
9313, "St. Georgen am Längsee",Carinthia
9314,Launsdorf,Carinthia
9321, "Kappel am Krappfeld",Carinthia
9322,Micheldorf,Carinthia
9323, "Wildbad Einöd",Styria
9330,Treibach-Althofen,Carinthia
9334,Guttaring,Carinthia
9335,Lölling,Carinthia
9341,Strasbourg,Carinthia
9342,Gurk,Carinthia
9343,Zweinitz,Carinthia
9344,Weitensfeld,Carinthia
9345,Kleinglödnitz,Carinthia
9346,Glödnitz,Carinthia
9360,Friesach,Carinthia
9361,St. Salvator,Carinthia
9362,Grades,Carinthia
9363,Metnitz,Carinthia
9371,Brückl,Carinthia
9372,Eberstein,Carinthia
9373,Klein St. Paul,Carinthia
9374,Wieting,Carinthia
9375,Hüttenberg,Carinthia
9376,Knappenberg,Carinthia
9400,Wolfsberg,Carinthia
9411, "St. Michael",Carinthia
9412, "St. Margarethen im Lavanttal",Carinthia
9413, "St. Gertraud",Carinthia
9421,Eitweg,Carinthia
9422, "Maria Rojach",Carinthia
9423, "St. Georgen",Carinthia
9431, "St. Stefan",Carinthia
9433, "St. Andrä",Carinthia
9441,Twimberg,Carinthia
9451,Preitenegg,Carinthia
9461,Prebl,Carinthia
9462, "Bad St. Leonhard im Lavanttal",Carinthia
9463,Reichenfels,Carinthia
9470,St. Paul in Lavanttal,Carinthia
9472,Ettendorf,Carinthia
9473,Lavamünd,Carinthia
9500,Villach,Carinthia
9504,Villach-Warmbad Villach,Carinthia
9520,Sattendorf,Carinthia
9521,Treffen,Carinthia
9523,Villach-Landskron,Carinthia
9524, "Villach-St. Magdalen",Carinthia
9530, "Bad Bleiberg",Carinthia
9531,Kreuth,Carinthia
9535, "Schiefling am Wörthersee",Carinthia
9536, "St. Egyden",Carinthia
9541,Einöde,Carinthia
9542,Afritz,Carinthia
9543,Arriach,Carinthia
9544,Feld am See,Carinthia
9545,Radenthein,Carinthia
9546,Bad Kleinkirchheim,Carinthia
9551,Bodensdorf,Carinthia
9552, "Steindorf on Lake Ossiach",Carinthia
9554,St. Urban,Carinthia
9555,Glanegg,Carinthia
9556,Liebenfels,Carinthia
9560, "Feldkirchen in Carinthia",Carinthia
9562,Himmelberg,Carinthia
9563,Gnesau,Carinthia
9564,Patergassen,Carinthia
9565,Ebene Reichenau,Carinthia
9570,Ossiach,Carinthia
9571,Sirnitz,Carinthia
9572,Deutsch Griffen,Carinthia
9580,Villach-Drobollach am Faaker See,Carinthia
9581,Ledenitzen,Carinthia
9582,Latschach,Carinthia
9583,Faak am See,Carinthia
9584,Finkenstein,Carinthia
9585,Gödersdorf,Carinthia
9586,Fürnitz,Carinthia
9587,Riegersdorf,Carinthia
9601,Arnoldstein,Carinthia
9602,Thörl-Maglern,Carinthia
9611,Nötsch,Carinthia
9612, "St. Georgen im Gailtal",Carinthia
9613, "Feistritz an der Gail",Carinthia
9614,Vorderberg,Carinthia
9615,Görtschach,Carinthia
9620,Hermagor,Carinthia
9622,Weißbriach,Carinthia
9623, "St. Stefan an der Gail",Carinthia
9624,Egg,Carinthia
9631,Jenig,Carinthia
9632,Kirchbach,Carinthia
9633,Reisach,Carinthia
9634,Gundersheim,Carinthia
9635,Dellach,Carinthia
9640,Kötschach-Mauthen,Carinthia
9651,St. Jakob im Lesachtal,Carinthia
9652,Birnbaum,Carinthia
9653,Liesing,Carinthia
9654, "St. Lorenzen im Lesachtal",Carinthia
9655, "Maria Luggau",Carinthia
9701,Rothenthurn,Carinthia
9702,Ferndorf,Carinthia
9710,Feistritz an der Drau,Carinthia
9711,Paternion,Carinthia
9712,Fresach,Carinthia
9713,Zlan,Carinthia
9714,Stockenboi,Carinthia
9721,Weißenstein,Carinthia
9722,Gummern,Carinthia
9751,Sachsenburg,Carinthia
9753,Lind im Drautal,Carinthia
9754,Steinfeld,Carinthia
9761,Greifenburg,Carinthia
9762,Weißensee,Carinthia
9771,Berg im Drautal,Carinthia
9772,Dellach,Carinthia
9773,Irschen,Carinthia
9781,Oberdrauburg,Carinthia
9782,Nikolsdorf,Tyrol
9800,Spittal an der Drau,Carinthia
9805,Baldramsdorf,Carinthia
9811,Lendorf,Carinthia
9812,Pusarnitz,Carinthia
9813,Möllbrücke,Carinthia
9814,Mühldorf,Carinthia
9815,Kolbnitz,Carinthia
9816,Penk,Carinthia
9821,Obervellach,Carinthia
9822,Mallnitz,Carinthia
9831,Flattach,Carinthia
9832,Stall,Carinthia
9833,Rangersdorf,Carinthia
9841,Winklern,Carinthia
9842,Mörtschach,Carinthia
9843,Großkirchheim,Carinthia
9844,Heiligenblut,Carinthia
9851,Lieserbrücke,Carinthia
9852,Trebesing,Carinthia
9853,Gmünd,Carinthia
9854,Malta,Carinthia
9861,Eisentratten,Carinthia
9862,Kremsbrücke,Carinthia
9863,Rennweg,Carinthia
9871,Seeboden,Carinthia
9872,Millstatt am See,Carinthia
9873,Döbriach,Carinthia
9900,Lienz,Tyrol
9903,Oberlienz,Tyrol
9904,Thurn,Tyrol
9905,Gaimberg,Tyrol
9906,Lavant,Tyrol
9907,Tristach,Tyrol
9908,Amlach,Tyrol
9909,Leisach,Tyrol
9911,Assling,Tyrol
9912,Anras,Tyrol
9913,Abfaltersbach,Tyrol
9918,Strassen,Tyrol
9919,Heinfels,Tyrol
9920,Sillian,Tyrol
9931,Außervillgraten,Tyrol
9932,Innervillgraten,Tyrol
9941,Kartitsch,Tyrol
9942,Obertilliach,Tirol
9943,Untertilliach,Tyrol
9951,Ainet,Tyrol
9952,St. Johann im Walde,Tyrol
9954,Schlaiten,Tyrol
9961, "Hopfgarten in Defereggen",Tyrol
9962, "St. Veit in Defereggen",Tyrol
9963, "St. Jakob in Defereggen",Tyrol
9971, "Matrei in East Tyrol",Tyrol
9972,Virgen,Tyrol
9974,Prägraten,Tyrol
9981,Kals,Tyrol
9990,Nußdorf-Debant,Tyrol
9991,Dölsach,Tirol
9992,Iselsberg-Stronach,Tyrol